QIANFAN-18              
1 60396U 24140T   26062.96131657  .00000111  00000+0  15323-3 0  9998
2 60396  88.9724 290.5722 0013267 320.1637  39.8540 13.51003286 78498
QIANFAN-19              
1 61552U 24185A   26062.94613766  .00000685  00000+0  35093-3 0  9998
2 61552  88.9757  68.6174 0008744  55.1395 305.0613 14.14385267 81141
QIANFAN-20              
1 61553U 24185B   26062.93760412  .00000664  00000+0  37574-3 0  9992
2 61553  88.9754  69.0242 0007911  86.5646 273.6443 14.08931573 80928
QIANFAN-21              
1 61554U 24185C   26062.98778183  .00000866  00000+0  38010-3 0  9992
2 61554  88.9675  67.4440 0012970  97.2479 263.0188 14.22725828 81523
QIANFAN-22              
1 61555U 24185D   26062.98982298  .00000324  00000+0  26888-3 0  9996
2 61555  88.9739  70.3278 0008537 103.9030 256.3092 13.86337878 80193
QIANFAN-23              
1 61556U 24185E   26062.94834503  .00000740  00000+0  36555-3 0  9992
2 61556  88.9749  68.3885 0009643  63.0943 297.1229 14.16390193 81249
QIANFAN-24              
1 61557U 24185F   26062.99225712  .00001024  00000+0  44027-3 0  9993
2 61557  88.9733  67.6556 0010761  43.4298 316.7740 14.23929263 81585
QIANFAN-25              
1 61558U 24185G   26062.99994564  .00000590  00000+0  35172-3 0  9990
2 61558  88.9747  68.9746 0011921  69.7098 290.5364 14.05993510 80928
QIANFAN-26              
1 61559U 24185H   26062.93975914  .00000303  00000+0  28974-3 0  9997
2 61559  88.9744  70.9707 0007599 116.7154 243.4791 13.77860537 79859
QIANFAN-27              
1 61560U 24185J   26062.99769522  .00000755  00000+0  30197-3 0  9992
2 61560  88.9746  67.3988 0008845  36.9235 323.2566 14.27441498 81758
QIANFAN-28              
1 61561U 24185K   26062.93802893  .00001181  00000+0  46858-3 0  9991
2 61561  88.9761  67.4130 0008448  37.9783 322.2006 14.28208891 81762
QIANFAN-29              
1 61562U 24185L   26062.98480324  .00000221  00000+0  32353-3 0  9997
2 61562  88.9717  72.8994 0010218 164.1974 195.9498 13.51042923 78768
QIANFAN-30              
1 61563U 24185M   26062.94710288  .00000215  00000+0  31955-3 0  9999
2 61563  88.9736  72.4599 0008540 148.2445 211.9222 13.50018063 79029
QIANFAN-31              
1 61564U 24185N   26062.95440845  .00000235  00000+0  30822-3 0  9994
2 61564  88.9722  72.1317 0008217 139.6099 220.5668 13.58002362 79180
QIANFAN-32              
1 61565U 24185P   26062.94473892  .00000185  00000+0  26941-3 0  9993
2 61565  88.9781  72.6191 0009560 177.4533 182.6669 13.50763482 79005
QIANFAN-33              
1 61566U 24185Q   26062.93787204  .00000533  00000+0  37550-3 0  9993
2 61566  88.9735  69.7380 0009313  77.6991 282.5228 13.96621405 80491
QIANFAN-34              
1 61567U 24185R   26062.99827785  .00000576  00000+0  36629-3 0  9992
2 61567  88.9711  69.1868 0008269  81.2186 278.9930 14.02381532 80746
