[{"OBJECT_NAME":"QIANFAN-18","OBJECT_ID":"2024-140T","EPOCH":"2026-03-03T23:04:17.751648","MEAN_MOTION":13.51003286,"ECCENTRICITY":0.00132673,"INCLINATION":88.9724,"RA_OF_ASC_NODE":290.5722,"ARG_OF_PERICENTER":320.1637,"MEAN_ANOMALY":39.854,"EPHEMERIS_TYPE":0,"CLASSIFICATION_TYPE":"U","NORAD_CAT_ID":60396,"ELEMENT_SET_NO":999,"REV_AT_EPOCH":7849,"BSTAR":0.00015322988,"MEAN_MOTION_DOT":1.11e-6,"MEAN_MOTION_DDOT":0},{"OBJECT_NAME":"QIANFAN-19","OBJECT_ID":"2024-185A","EPOCH":"2026-03-03T22:42:26.293824","MEAN_MOTION":14.14385267,"ECCENTRICITY":0.00087447,"INCLINATION":88.9757,"RA_OF_ASC_NODE":68.6174,"ARG_OF_PERICENTER":55.1395,"MEAN_ANOMALY":305.0613,"EPHEMERIS_TYPE":0,"CLASSIFICATION_TYPE":"U","NORAD_CAT_ID":61552,"ELEMENT_SET_NO":999,"REV_AT_EPOCH":8114,"BSTAR":0.00035092564,"MEAN_MOTION_DOT":6.85e-6,"MEAN_MOTION_DDOT":0},{"OBJECT_NAME":"QIANFAN-20","OBJECT_ID":"2024-185B","EPOCH":"2026-03-03T22:30:08.995968","MEAN_MOTION":14.08931573,"ECCENTRICITY":0.00079116,"INCLINATION":88.9754,"RA_OF_ASC_NODE":69.0242,"ARG_OF_PERICENTER":86.5646,"MEAN_ANOMALY":273.6443,"EPHEMERIS_TYPE":0,"CLASSIFICATION_TYPE":"U","NORAD_CAT_ID":61553,"ELEMENT_SET_NO":999,"REV_AT_EPOCH":8092,"BSTAR":0.00037574193,"MEAN_MOTION_DOT":6.64e-6,"MEAN_MOTION_DDOT":0},{"OBJECT_NAME":"QIANFAN-21","OBJECT_ID":"2024-185C","EPOCH":"2026-03-03T23:42:24.350112","MEAN_MOTION":14.22725828,"ECCENTRICITY":0.00129702,"INCLINATION":88.9675,"RA_OF_ASC_NODE":67.444,"ARG_OF_PERICENTER":97.2479,"MEAN_ANOMALY":263.0188,"EPHEMERIS_TYPE":0,"CLASSIFICATION_TYPE":"U","NORAD_CAT_ID":61554,"ELEMENT_SET_NO":999,"REV_AT_EPOCH":8152,"BSTAR":0.00038010326,"MEAN_MOTION_DOT":8.66e-6,"MEAN_MOTION_DDOT":0},{"OBJECT_NAME":"QIANFAN-22","OBJECT_ID":"2024-185D","EPOCH":"2026-03-03T23:45:20.705472","MEAN_MOTION":13.86337878,"ECCENTRICITY":0.00085377,"INCLINATION":88.9739,"RA_OF_ASC_NODE":70.3278,"ARG_OF_PERICENTER":103.903,"MEAN_ANOMALY":256.3092,"EPHEMERIS_TYPE":0,"CLASSIFICATION_TYPE":"U","NORAD_CAT_ID":61555,"ELEMENT_SET_NO":999,"REV_AT_EPOCH":8019,"BSTAR":0.00026888421,"MEAN_MOTION_DOT":3.24e-6,"MEAN_MOTION_DDOT":0},{"OBJECT_NAME":"QIANFAN-23","OBJECT_ID":"2024-185E","EPOCH":"2026-03-03T22:45:37.010592","MEAN_MOTION":14.16390193,"ECCENTRICITY":0.00096433,"INCLINATION":88.9749,"RA_OF_ASC_NODE":68.3885,"ARG_OF_PERICENTER":63.0943,"MEAN_ANOMALY":297.1229,"EPHEMERIS_TYPE":0,"CLASSIFICATION_TYPE":"U","NORAD_CAT_ID":61556,"ELEMENT_SET_NO":999,"REV_AT_EPOCH":8124,"BSTAR":0.00036555116,"MEAN_MOTION_DOT":7.4e-6,"MEAN_MOTION_DDOT":0},{"OBJECT_NAME":"QIANFAN-24","OBJECT_ID":"2024-185F","EPOCH":"2026-03-03T23:48:51.015168","MEAN_MOTION":14.23929263,"ECCENTRICITY":0.0010761,"INCLINATION":88.9733,"RA_OF_ASC_NODE":67.6556,"ARG_OF_PERICENTER":43.4298,"MEAN_ANOMALY":316.774,"EPHEMERIS_TYPE":0,"CLASSIFICATION_TYPE":"U","NORAD_CAT_ID":61557,"ELEMENT_SET_NO":999,"REV_AT_EPOCH":8158,"BSTAR":0.00044026547,"MEAN_MOTION_DOT":1.024e-5,"MEAN_MOTION_DDOT":0},{"OBJECT_NAME":"QIANFAN-25","OBJECT_ID":"2024-185G","EPOCH":"2026-03-03T23:59:55.303296","MEAN_MOTION":14.0599351,"ECCENTRICITY":0.00119211,"INCLINATION":88.9747,"RA_OF_ASC_NODE":68.9746,"ARG_OF_PERICENTER":69.7098,"MEAN_ANOMALY":290.5364,"EPHEMERIS_TYPE":0,"CLASSIFICATION_TYPE":"U","NORAD_CAT_ID":61558,"ELEMENT_SET_NO":999,"REV_AT_EPOCH":8092,"BSTAR":0.000351718,"MEAN_MOTION_DOT":5.9e-6,"MEAN_MOTION_DDOT":0},{"OBJECT_NAME":"QIANFAN-26","OBJECT_ID":"2024-185H","EPOCH":"2026-03-03T22:33:15.189696","MEAN_MOTION":13.77860537,"ECCENTRICITY":0.00075993,"INCLINATION":88.9744,"RA_OF_ASC_NODE":70.9707,"ARG_OF_PERICENTER":116.7154,"MEAN_ANOMALY":243.4791,"EPHEMERIS_TYPE":0,"CLASSIFICATION_TYPE":"U","NORAD_CAT_ID":61559,"ELEMENT_SET_NO":999,"REV_AT_EPOCH":7985,"BSTAR":0.00028974456,"MEAN_MOTION_DOT":3.03e-6,"MEAN_MOTION_DDOT":0},{"OBJECT_NAME":"QIANFAN-27","OBJECT_ID":"2024-185J","EPOCH":"2026-03-03T23:56:40.867008","MEAN_MOTION":14.27441498,"ECCENTRICITY":0.00088451,"INCLINATION":88.9746,"RA_OF_ASC_NODE":67.3988,"ARG_OF_PERICENTER":36.9235,"MEAN_ANOMALY":323.2566,"EPHEMERIS_TYPE":0,"CLASSIFICATION_TYPE":"U","NORAD_CAT_ID":61560,"ELEMENT_SET_NO":999,"REV_AT_EPOCH":8175,"BSTAR":0.00030196714,"MEAN_MOTION_DOT":7.55e-6,"MEAN_MOTION_DDOT":0},{"OBJECT_NAME":"QIANFAN-28","OBJECT_ID":"2024-185K","EPOCH":"2026-03-03T22:30:45.699552","MEAN_MOTION":14.28208891,"ECCENTRICITY":0.00084487,"INCLINATION":88.9761,"RA_OF_ASC_NODE":67.413,"ARG_OF_PERICENTER":37.9783,"MEAN_ANOMALY":322.2006,"EPHEMERIS_TYPE":0,"CLASSIFICATION_TYPE":"U","NORAD_CAT_ID":61561,"ELEMENT_SET_NO":999,"REV_AT_EPOCH":8176,"BSTAR":0.00046857612,"MEAN_MOTION_DOT":1.181e-5,"MEAN_MOTION_DDOT":0},{"OBJECT_NAME":"QIANFAN-29","OBJECT_ID":"2024-185L","EPOCH":"2026-03-03T23:38:06.999936","MEAN_MOTION":13.51042923,"ECCENTRICITY":0.00102186,"INCLINATION":88.9717,"RA_OF_ASC_NODE":72.8994,"ARG_OF_PERICENTER":164.1974,"MEAN_ANOMALY":195.9498,"EPHEMERIS_TYPE":0,"CLASSIFICATION_TYPE":"U","NORAD_CAT_ID":61562,"ELEMENT_SET_NO":999,"REV_AT_EPOCH":7876,"BSTAR":0.00032353301,"MEAN_MOTION_DOT":2.21e-6,"MEAN_MOTION_DDOT":0},{"OBJECT_NAME":"QIANFAN-30","OBJECT_ID":"2024-185M","EPOCH":"2026-03-03T22:43:49.688832","MEAN_MOTION":13.50018063,"ECCENTRICITY":0.00085402,"INCLINATION":88.9736,"RA_OF_ASC_NODE":72.4599,"ARG_OF_PERICENTER":148.2445,"MEAN_ANOMALY":211.9222,"EPHEMERIS_TYPE":0,"CLASSIFICATION_TYPE":"U","NORAD_CAT_ID":61563,"ELEMENT_SET_NO":999,"REV_AT_EPOCH":7902,"BSTAR":0.00031955277,"MEAN_MOTION_DOT":2.15e-6,"MEAN_MOTION_DDOT":0},{"OBJECT_NAME":"QIANFAN-31","OBJECT_ID":"2024-185N","EPOCH":"2026-03-03T22:54:20.890080","MEAN_MOTION":13.58002362,"ECCENTRICITY":0.00082171,"INCLINATION":88.9722,"RA_OF_ASC_NODE":72.1317,"ARG_OF_PERICENTER":139.6099,"MEAN_ANOMALY":220.5668,"EPHEMERIS_TYPE":0,"CLASSIFICATION_TYPE":"U","NORAD_CAT_ID":61564,"ELEMENT_SET_NO":999,"REV_AT_EPOCH":7918,"BSTAR":0.00030822453,"MEAN_MOTION_DOT":2.35e-6,"MEAN_MOTION_DDOT":0},{"OBJECT_NAME":"QIANFAN-32","OBJECT_ID":"2024-185P","EPOCH":"2026-03-03T22:40:25.442688","MEAN_MOTION":13.50763482,"ECCENTRICITY":0.00095605,"INCLINATION":88.9781,"RA_OF_ASC_NODE":72.6191,"ARG_OF_PERICENTER":177.4533,"MEAN_ANOMALY":182.6669,"EPHEMERIS_TYPE":0,"CLASSIFICATION_TYPE":"U","NORAD_CAT_ID":61565,"ELEMENT_SET_NO":999,"REV_AT_EPOCH":7900,"BSTAR":0.0002694052,"MEAN_MOTION_DOT":1.85e-6,"MEAN_MOTION_DDOT":0},{"OBJECT_NAME":"QIANFAN-33","OBJECT_ID":"2024-185Q","EPOCH":"2026-03-03T22:30:32.144256","MEAN_MOTION":13.96621405,"ECCENTRICITY":0.00093138,"INCLINATION":88.9735,"RA_OF_ASC_NODE":69.738,"ARG_OF_PERICENTER":77.6991,"MEAN_ANOMALY":282.5228,"EPHEMERIS_TYPE":0,"CLASSIFICATION_TYPE":"U","NORAD_CAT_ID":61566,"ELEMENT_SET_NO":999,"REV_AT_EPOCH":8049,"BSTAR":0.00037549703,"MEAN_MOTION_DOT":5.33e-6,"MEAN_MOTION_DDOT":0},{"OBJECT_NAME":"QIANFAN-34","OBJECT_ID":"2024-185R","EPOCH":"2026-03-03T23:57:31.206240","MEAN_MOTION":14.02381532,"ECCENTRICITY":0.00082696,"INCLINATION":88.9711,"RA_OF_ASC_NODE":69.1868,"ARG_OF_PERICENTER":81.2186,"MEAN_ANOMALY":278.993,"EPHEMERIS_TYPE":0,"CLASSIFICATION_TYPE":"U","NORAD_CAT_ID":61567,"ELEMENT_SET_NO":999,"REV_AT_EPOCH":8074,"BSTAR":0.00036628576,"MEAN_MOTION_DOT":5.76e-6,"MEAN_MOTION_DDOT":0}]
